GS-1                    
1 56372U 23060C   26087.56169343 -.00000211  00000+0  00000+0 0  9997
2 56372   2.5179  80.7635 0004724 267.9888 124.8921  1.00294982  6731
